NORAD_CAT_ID,OBJECT_NAME,OBJECT_TYPE,EPOCH,MEAN_MOTION,ECCENTRICITY,INCLINATION,RA_OF_ASC_NODE,ARG_OF_PERICENTER,MEAN_ANOMALY,BSTAR,MEAN_MOTION_DOT,MEAN_MOTION_DDOT,TLE_LINE0,TLE_LINE1,TLE_LINE2,SEMIMAJOR_AXIS,PERIOD,APOGEE,PERIGEE,DECAYED
52629.0,STARLINK-4022,PAYLOAD,2024-08-08 13:33:27,15.08845778,0.0001432,53.2186,344.3857,102.7325,257.3827,1.0444e-05,-1.22e-06,0.0,0 STARLINK-4022,1 52629U 22052AH  24221.56489689 -.00000122  00000-0  10444-4 0  9994,2 52629  53.2186 344.3857 0001432 102.7325 257.3827 15.08845778123716,6917.863,95.437,540.718,538.737,0.0
52629.0,STARLINK-4022,PAYLOAD,2024-08-08 15:08:50,15.08847145,0.0001326,53.2184,344.087,101.0723,259.0418,0.00012657,1.727e-05,0.0,0 STARLINK-4022,1 52629U 22052AH  24221.63113618  .00001727  00000-0  12657-3 0  9996,2 52629  53.2184 344.0870 0001326 101.0723 259.0418 15.08847145124101,6917.859,95.437,540.641,538.806,0.0
52629.0,STARLINK-4022,PAYLOAD,2024-08-09 00:41:08,15.08876794,0.0001144,53.2188,342.3048,111.141,248.9705,0.0017498,0.00027698,0.0,0 STARLINK-4022,1 52629U 22052AH  24222.02856880  .00027698  00000-0  17498-2 0  9997,2 52629  53.2188 342.3048 0001144 111.1410 248.9705 15.08876794124160,6917.768,95.435,540.424,538.842,0.0
52629.0,STARLINK-4022,PAYLOAD,2024-08-09 11:48:51,15.08833489,0.000136,53.2178,340.2219,115.0238,245.0895,-0.00019389,-3.372e-05,0.0,0 STARLINK-4022,1 52629U 22052AH  24222.49225737 -.00003372  00000-0 -19389-3 0  9996,2 52629  53.2178 340.2219 0001360 115.0238 245.0895 15.08833489124237,6917.9,95.438,540.706,538.824,0.0
52629.0,STARLINK-4022,PAYLOAD,2024-08-09 14:59:37,15.08839966,9.97e-05,53.2169,339.6272,104.0463,256.064,3.1868e-05,2.19e-06,0.0,0 STARLINK-4022,1 52629U 22052AH  24222.62473703  .00000219  00000-0  31868-4 0  9991,2 52629  53.2169 339.6272 0000997 104.0463 256.0640 15.08839966123876,6917.88,95.438,540.435,539.056,0.0
52629.0,STARLINK-4022,PAYLOAD,2024-08-09 18:10:23,15.08845629,0.0001029,53.2173,339.0328,112.9971,247.113,0.0002893,4.32e-05,0.0,0 STARLINK-4022,1 52629U 22052AH  24222.75721565  .00004320  00000-0  28930-3 0  9999,2 52629  53.2173 339.0328 0001029 112.9971 247.1130 15.08845629123896,6917.863,95.437,540.44,539.016,0.0
52629.0,STARLINK-4022,PAYLOAD,2024-08-10 11:39:38,15.08836363,0.0001017,53.2173,335.7589,88.4248,271.686,0.00018547,2.665e-05,0.0,0 STARLINK-4022,1 52629U 22052AH  24223.48586300  .00002665  00000-0  18547-3 0  9999,2 52629  53.2173 335.7589 0001017  88.4248 271.6860 15.08836363124381,6917.892,95.438,540.46,539.053,0.0
52629.0,STARLINK-4022,PAYLOAD,2024-08-10 13:15:01,15.08833257,9.78e-05,53.2177,335.4632,92.9702,267.1402,7.6928e-05,9.37e-06,0.0,0 STARLINK-4022,1 52629U 22052AH  24223.55210331  .00000937  00000-0  76928-4 0  9993,2 52629  53.2177 335.4632 0000978  92.9702 267.1402 15.08833257124012,6917.901,95.438,540.443,539.089,0.0
52629.0,STARLINK-4022,PAYLOAD,2024-08-11 00:22:42,15.088646,7.8e-05,53.2172,333.3842,72.7337,287.374,0.00051704,7.956e-05,0.0,0 STARLINK-4022,1 52629U 22052AH  24224.01576875  .00007956  00000-0  51704-3 0  9995,2 52629  53.2172 333.3842 0000780  72.7337 287.3740 15.08864600124462,6917.805,95.436,540.21,539.131,0.0
52629.0,STARLINK-4022,PAYLOAD,2024-08-11 16:16:35,15.08824306,0.0001694,53.2184,330.4098,109.062,251.0555,-0.00016496,-2.911e-05,0.0,0 STARLINK-4022,1 52629U 22052AH  24224.67818793 -.00002911  00000-0 -16496-3 0  9992,2 52629  53.2184 330.4098 0001694 109.0620 251.0555 15.08824306124562,6917.928,95.439,540.965,538.621,0.0
52629.0,STARLINK-4022,PAYLOAD,2024-08-12 00:13:30,15.08855245,0.0001138,53.2174,328.9217,102.5938,257.5181,0.00044301,6.773e-05,0.0,0 STARLINK-4022,1 52629U 22052AH  24225.00937786  .00006773  00000-0  44301-3 0  9998,2 52629  53.2174 328.9217 0001138 102.5938 257.5181 15.08855245124617,6917.834,95.437,540.486,538.912,0.0
52629.0,STARLINK-4022,PAYLOAD,2024-08-12 12:56:35,15.08850495,0.0001073,53.2173,326.5436,105.8114,254.2996,0.00041122,6.265e-05,0.0,0 STARLINK-4022,1 52629U 22052AH  24225.53930234  .00006265  00000-0  41122-3 0  9991,2 52629  53.2173 326.5436 0001073 105.8114 254.2996 15.08850495124691,6917.848,95.437,540.456,538.971,0.0
52629.0,STARLINK-4022,PAYLOAD,2024-08-12 19:18:07,15.0887079,0.0002902,53.2145,325.3525,93.3747,266.7577,0.00079932,0.00012467,0.0,0 STARLINK-4022,1 52629U 22052AH  24225.80425698  .00012467  00000-0  79932-3 0  9995,2 52629  53.2145 325.3525 0002902  93.3747 266.7577 15.08870790124357,6917.786,95.436,541.659,537.644,0.0
52629.0,STARLINK-4022,PAYLOAD,2024-08-13 00:04:16,15.0889982,0.0002646,53.2177,324.4625,72.26,287.8681,0.0020031,0.00031789,0.0,0 STARLINK-4022,1 52629U 22052AH  24226.00296677  .00031789  00000-0  20031-2 0  9994,2 52629  53.2177 324.4625 0002646  72.2600 287.8681 15.08899820124762,6917.698,95.434,541.393,537.732,0.0
52629.0,STARLINK-4022,PAYLOAD,2024-08-13 12:47:21,15.08837378,0.0001811,53.212,322.0805,89.5339,270.5861,-0.00060313,-9.874e-05,0.0,0 STARLINK-4022,1 52629U 22052AH  24226.53289313 -.00009874  00000-0 -60313-3 0  9991,2 52629  53.2120 322.0805 0001811  89.5339 270.5861 15.08837378124845,6917.888,95.438,541.006,538.501,0.0
52629.0,STARLINK-4022,PAYLOAD,2024-08-14 12:38:10,15.08828189,0.0002187,53.2161,317.6242,89.8575,270.2668,-0.00028286,-4.786e-05,0.0,0 STARLINK-4022,1 52629U 22052AH  24227.52650464 -.00004786  00000-0 -28286-3 0  9990,2 52629  53.2161 317.6242 0002187  89.8575 270.2668 15.08828189124614,6917.916,95.438,541.294,538.269,0.0
52629.0,STARLINK-4022,PAYLOAD,2024-08-15 17:15:06,15.08836628,0.0001758,53.2172,312.2711,89.8128,270.3066,0.00037254,5.645e-05,0.0,0 STARLINK-4022,1 52629U 22052AH  24228.71883041  .00005645  00000-0  37254-3 0  9999,2 52629  53.2172 312.2711 0001758  89.8128 270.3066 15.08836628125177,6917.891,95.438,540.972,538.54,0.0
52629.0,STARLINK-4022,PAYLOAD,2024-08-16 09:08:58,15.08836725,0.0001568,53.2175,309.2971,88.0471,272.07,0.0002493,3.681e-05,0.0,0 STARLINK-4022,1 52629U 22052AH  24229.38123302  .00003681  00000-0  24930-3 0  9995,2 52629  53.2175 309.2971 0001568  88.0471 272.0700 15.08836725124895,6917.89,95.438,540.84,538.671,0.0
52629.0,STARLINK-4022,PAYLOAD,2024-08-17 05:48:59,15.08838471,0.0001647,53.218,305.4302,92.916,267.2021,9.2035e-05,1.177e-05,0.0,0 STARLINK-4022,1 52629U 22052AH  24230.24235317  .00001177  00000-0  92035-4 0  9992,2 52629  53.2180 305.4302 0001647  92.9160 267.2021 15.08838471125022,6917.885,95.438,540.889,538.611,0.0
52629.0,STARLINK-4022,PAYLOAD,2024-08-18 12:01:19,15.08840246,0.0001514,53.2163,299.7809,94.6608,265.4557,0.00074118,0.00011528,0.0,0 STARLINK-4022,1 52629U 22052AH  24231.50092047  .00011528  00000-0  74118-3 0  9995,2 52629  53.2163 299.7809 0001514  94.6608 265.4557 15.08840246125598,6917.88,95.438,540.792,538.697,0.0
52629.0,STARLINK-4022,PAYLOAD,2024-08-19 10:16:43,15.08841495,0.000148,53.216,295.6189,73.3181,286.7973,0.00018475,2.654e-05,0.0,0 STARLINK-4022,1 52629U 22052AH  24232.42827936  .00002654  00000-0  18475-3 0  9994,2 52629  53.2160 295.6189 0001480  73.3181 286.7973 15.08841495125734,6917.876,95.437,540.765,538.717,0.0
52629.0,STARLINK-4022,PAYLOAD,2024-08-20 11:42:53,15.08848101,0.0001698,53.2167,290.8573,69.8973,290.2201,0.00012422,1.69e-05,0.0,0 STARLINK-4022,1 52629U 22052AH  24233.48811616  .00001690  00000-0  12422-3 0  9994,2 52629  53.2167 290.8573 0001698  69.8973 290.2201 15.08848101125897,6917.856,95.437,540.895,538.546,0.0
52629.0,STARLINK-4022,PAYLOAD,2024-08-21 09:58:16,15.08846391,0.000141,53.2156,286.6944,93.1828,266.9325,0.00016736,2.377e-05,0.0,0 STARLINK-4022,1 52629U 22052AH  24234.41547344  .00002377  00000-0  16736-3 0  9997,2 52629  53.2156 286.6944 0001410  93.1828 266.9325 15.08846391125651,6917.861,95.437,540.701,538.75,0.0
52629.0,STARLINK-4022,PAYLOAD,2024-08-21 21:05:58,15.08846715,0.0001409,53.2156,284.6135,93.3981,266.7173,0.00014136,1.963e-05,0.0,0 STARLINK-4022,1 52629U 22052AH  24234.87915218  .00001963  00000-0  14136-3 0  9998,2 52629  53.2156 284.6135 0001409  93.3981 266.7173 15.08846715126101,6917.86,95.437,540.7,538.75,0.0
